[{"OBJECT_NAME":"NEXSAT-1","OBJECT_ID":"2024-024E","EPOCH":"2026-03-09T22:47:24.778176","MEAN_MOTION":15.32166372,"ECCENTRICITY":0.00099795,"INCLINATION":97.3124,"RA_OF_ASC_NODE":144.1918,"ARG_OF_PERICENTER":108.5709,"MEAN_ANOMALY":251.6617,"EPHEMERIS_TYPE":0,"CLASSIFICATION_TYPE":"U","NORAD_CAT_ID":58921,"ELEMENT_SET_NO":999,"REV_AT_EPOCH":11669,"BSTAR":0.00031433612,"MEAN_MOTION_DOT":9.702e-5,"MEAN_MOTION_DDOT":0},{"OBJECT_NAME":"STARLINK-32702","OBJECT_ID":"2024-251A","EPOCH":"2026-03-09T23:35:51.139392","MEAN_MOTION":15.3022321,"ECCENTRICITY":0.00013632,"INCLINATION":53.1627,"RA_OF_ASC_NODE":331.0824,"ARG_OF_PERICENTER":65.2599,"MEAN_ANOMALY":294.8544,"EPHEMERIS_TYPE":0,"CLASSIFICATION_TYPE":"U","NORAD_CAT_ID":62432,"ELEMENT_SET_NO":999,"REV_AT_EPOCH":6803,"BSTAR":0.0011431202,"MEAN_MOTION_DOT":0.00033675,"MEAN_MOTION_DDOT":0}]
